STARLINK-4410           
1 53204U 22084R   24016.73072755 -.00000076  00000+0 -12971-5 0  9998
2 53204  97.6578  79.7366 0001132 156.7320 203.3956 15.01262873 82505
STARLINK-4397           
1 53205U 22084S   24016.72307425  .00000600  00000+0  51320-4 0  9994
2 53205  97.6592  79.7360 0000593 292.8672  67.2490 15.01263050 81842
STARLINK-4408           
1 53206U 22084T   24016.71196964  .00000186  00000+0  19112-4 0  9990
2 53206  97.6561  79.7666 0002121  91.6961 268.4506 15.01263153 81840
STARLINK-4413           
1 53207U 22084U   24016.72122168  .00000355  00000+0  32261-4 0  9995
2 53207  97.6583  79.7344 0000711 205.7561 154.3628 15.01264458 81842
STARLINK-4425           
1 53208U 22084V   24016.92858603  .00000889  00000+0  73829-4 0  9995
2 53208  97.6581  79.9322 0000900 146.4050 213.7231 15.01263491 81872
STARLINK-4423           
1 53209U 22084W   24016.71961733  .00001005  00000+0  82806-4 0  9998
2 53209  97.6592  79.7373 0000363 158.8085 201.3154 15.01259146 81843
STARLINK-4427           
1 53210U 22084X   24016.72492385  .00000087  00000+0  11351-4 0  9999
2 53210  97.6591  79.7343 0000320 234.6044 125.5150 15.01267508 82386
STARLINK-4419           
1 53211U 22084Y   24016.71407319  .00005673  00000+0  44631-3 0  9994
2 53211  97.6574  79.7369 0001799  86.5469 273.5961 15.01228282 82360
STARLINK-4416           
1 53212U 22084Z   24016.71937338  .00000690  00000+0  58311-4 0  9999
2 53212  97.6593  79.7366 0000353 200.8664 159.2546 15.01257579 81844
STARLINK-4414           
1 53213U 22084AA  24016.71014150  .00005173  00000+0  40747-3 0  9992
2 53213  97.6569  79.7326 0002510  80.9525 279.1983 15.01216050 82368
STARLINK-4353           
1 53214U 22084AB  24016.71752601  .00000027  00000+0  67097-5 0  9995
2 53214  97.6580  79.7365 0000787 114.2201 245.9105 15.01264717 81843
STARLINK-4335           
1 53215U 22084AC  24016.70827332  .00000961  00000+0  79405-4 0  9991
2 53215  97.6560  79.7288 0002769  88.8172 271.3369 15.01257135 82360
STARLINK-4376           
1 53216U 22084AD  24016.71382613  .00000788  00000+0  65947-4 0  9994
2 53216  97.6569  79.7325 0001839  88.0250 272.1185 15.01257928 81845
STARLINK-4379           
1 53217U 22084AE  24016.69716036  .00000278  00000+0  26208-4 0  9993
2 53217  97.6555  79.7232 0003139  81.1338 279.0241 15.01262600 81846
STARLINK-4384           
1 53218U 22084AF  24016.76590526 -.00000188  00000+0 -10062-4 0  9999
2 53218  97.6548  79.8059 0002172  98.2293 261.9178 15.01261503 82371
STARLINK-4373           
1 53219U 22084AG  24016.76752170  .00005505  00000+0  43318-3 0  9990
2 53219  97.6545  79.7803 0002836  89.7811 270.3738 15.01231575 81857
STARLINK-4363           
1 53220U 22084AH  24016.70641999  .00000293  00000+0  27383-4 0  9996
2 53220  97.6552  79.7246 0002602  86.2768 273.8754 15.01260615 82362
STARLINK-4377           
1 53221U 22084AJ  24016.69901486  .00000125  00000+0  14360-4 0  9990
2 53221  97.6542  79.7124 0002788  91.0967 269.0576 15.01258394 81849
STARLINK-4381           
1 53222U 22084AK  24016.70456870  .00000078  00000+0  10645-4 0  9994
2 53222  97.6551  79.7202 0003061  82.4900 277.6671 15.01258588 81849
STARLINK-4354           
1 53223U 22084AL  24016.70481571  .00000043  00000+0  79194-5 0  9998
2 53223  97.6550  79.7043 0003266  79.7192 280.4400 15.01259389 81843
STARLINK-4356           
1 53224U 22084AM  24016.70271778  .00000279  00000+0  26294-4 0  9998
2 53224  97.6553  79.7184 0002863  80.9946 279.1602 15.01258459 81842
STARLINK-4358           
1 53225U 22084AN  24016.69345791 -.00000207  00000+0 -11551-4 0  9997
2 53225  97.6569  79.6981 0001893 107.5523 252.5908 15.01259124 81847
STARLINK-4359           
1 53226U 22084AP  24016.75825417  .00002386  00000+0  19031-3 0  9991
2 53226  97.6561  79.7775 0001203  80.0239 280.1121 15.01256902 81852
STARLINK-4366           
1 53227U 22084AQ  24016.74899562 -.00000067  00000+0 -65798-6 0  9993
2 53227  97.6568  79.7699 0000323 268.0164  92.1023 15.01257907 81850
STARLINK-4365           
1 53228U 22084AR  24016.76196299 -.00000539  00000+0 -37363-4 0  9992
2 53228  97.6567  79.7673 0002337  82.7983 277.3507 15.01259236 81850
STARLINK-4367           
1 53229U 22084AS  24016.75640707 -.00000435  00000+0 -29262-4 0  9994
2 53229  97.6571  79.7593 0001592  91.7718 268.3688 15.01260738 81854
STARLINK-4364           
1 53230U 22084AT  24016.76035740 -.00000580  00000+0 -40605-4 0  9997
2 53230  97.6563  79.7617 0001901  96.0190 264.1250 15.01253779 81856
STARLINK-4370           
1 53231U 22084AU  24016.75270973  .00010425  00000+0  81616-3 0  9999
2 53231  97.6572  79.7548 0000962 123.3569 236.7747 15.01207110 81854
STARLINK-4371           
1 53232U 22084AV  24016.75455302  .00000016  00000+0  58504-5 0  9998
2 53232  97.6562  79.7586 0001452  88.2328 271.9062 15.01261351 81851
STARLINK-4372           
1 53233U 22084AW  24016.74924324 -.00000037  00000+0  17384-5 0  9998
2 53233  97.6569  79.7564 0000498  33.6440 326.4815 15.01258215 81850
STARLINK-4368           
1 53234U 22084AX  24016.75085372  .00004705  00000+0  37093-3 0  9993
2 53234  97.6566  79.7508 0000374 117.1450 242.9813 15.01235057 82869
STARLINK-4056           
1 53242U 22086A   24016.67975538  .00000032  00000+0  20113-4 0  9992
2 53242  53.2170 114.1801 0001416  98.5474 261.5679 15.08842525 83109
STARLINK-4047           
1 53243U 22086B   24016.65165960 -.00000776  00000+0 -30657-4 0  9992
2 53243  53.2163 119.0049 0001484  78.6099 281.5060 15.08839075 83053
STARLINK-4125           
1 53244U 22086C   24016.68211303  .00002037  00000+0  14603-3 0  9991
2 53244  53.2157 119.3048 0001657  87.7532 272.3650 15.08842616 83030
STARLINK-4124           
1 53245U 22086D   24016.54498186 -.00000589  00000+0 -18941-4 0  9995
2 53245  53.2159 119.7983 0001513  61.3642 298.7502 15.08843676 82513
STARLINK-4131           
1 53246U 22086E   24016.67377443  .00001439  00000+0  10849-3 0  9993
2 53246  53.2164 119.2161 0001391 100.1360 259.9789 15.08848704 81923
STARLINK-4061           
1 53247U 22086F   24016.56202041 -.00000095  00000+0  12091-4 0  9993
2 53247  53.2158 114.8995 0001360  95.1911 264.9236 15.08839494 83082
STARLINK-4135           
1 53248U 22086G   24016.68344114  .00000246  00000+0  33557-4 0  9992
2 53248  53.2173 114.2789 0001382  89.0438 271.0712 15.08848875 83109
STARLINK-4128           
1 53249U 22086H   24016.62045601  .00000731  00000+0  64040-4 0  9996
2 53249  53.2186 109.4680 0001587  97.2472 262.8701 15.08841740 82868
STARLINK-4059           
1 53250U 22086J   24016.49070294 -.00000458  00000+0 -10681-4 0  9999
2 53250  53.2171 110.0393 0001289  87.7431 272.3709 15.08835795 82846
STARLINK-4129           
1 53251U 22086K   24016.61214220 -.00000739  00000+0 -28328-4 0  9992
2 53251  53.2172 109.4916 0001429  83.5808 276.5347 15.08835429 82847
STARLINK-4132           
1 53252U 22086L   24016.61581489 -.00001511  00000+0 -76878-4 0  9999
2 53252  53.2174 109.4238 0001416 101.3832 258.7319 15.08838750 82862
STARLINK-4133           
1 53253U 22086M   24016.54222107 -.00000519  00000+0 -14499-4 0  9999
2 53253  53.2178 109.8094 0001550  93.4977 266.6192 15.08838343 82833
STARLINK-4134           
1 53254U 22086N   24016.61676841  .00000867  00000+0  72550-4 0  9992
2 53254  53.2178 109.4769 0001055 133.1939 226.9141 15.08853377 82869
STARLINK-4142           
1 53255U 22086P   24016.46862472  .00002418  00000+0  16997-3 0  9999
2 53255  53.2183 110.1430 0001586  77.9710 282.1460 15.08837651 82822
STARLINK-4147           
1 53256U 22086Q   24016.60477766 -.00000812  00000+0 -32938-4 0  9996
2 53256  53.2186 109.5218 0001620 105.2509 254.8662 15.08842485 82845
STARLINK-4144           
1 53257U 22086R   24016.59006061 -.00000561  00000+0 -17161-4 0  9993
2 53257  53.2169 109.5883 0001482  94.1770 265.9392 15.08839322 82846
STARLINK-4127           
1 53258U 22086S   24016.59741934 -.00000919  00000+0 -39622-4 0  9992
2 53258  53.2177 109.5586 0001480  87.3375 272.7787 15.08841199 82848
STARLINK-4140           
1 53259U 22086T   24016.48697738 -.00000927  00000+0 -40143-4 0  9992
2 53259  53.2159 109.7003 0001134  80.6199 279.4922 15.08834180 82837
STARLINK-4136           
1 53260U 22086U   24016.59373812  .00001880  00000+0  13617-3 0  9992
2 53260  53.2158 109.5750 0001479 106.5188 253.5967 15.08842298 82845
STARLINK-4062           
1 53261U 22086V   24016.57901643  .00000714  00000+0  62967-4 0  9998
2 53261  53.2174 109.6433 0001535  83.7894 276.3273 15.08845074 82844
STARLINK-4085           
1 53262U 22086W   24016.58638040 -.00000891  00000+0 -37868-4 0  9998
2 53262  53.2175 109.6095 0001506  86.4322 273.6842 15.08843340 82840
STARLINK-4130           
1 53263U 22086X   24016.64157613  .00000077  00000+0  22925-4 0  9990
2 53263  53.2185 109.3569 0001546  82.6078 277.5090 15.08846801 82859
STARLINK-3950           
1 53264U 22086Y   24016.64893435 -.00000558  00000+0 -16939-4 0  9994
2 53264  53.2160 109.3283 0001254 116.0204 244.0917 15.08846505 82853
STARLINK-4097           
1 53265U 22086Z   24016.63421818  .00004376  00000+0  29281-3 0  9999
2 53265  53.2147 109.3920 0001303 101.1678 258.9461 15.08844680 82852
STARLINK-4058           
1 53266U 22086AA  24016.63790148 -.00000560  00000+0 -17091-4 0  9995
2 53266  53.2157 109.3784 0001515  82.4173 277.6991 15.08836314 82859
STARLINK-4060           
1 53267U 22086AB  24016.62685879  .00000152  00000+0  27652-4 0  9998
2 53267  53.2172 109.4239 0001372  94.1906 265.9243 15.08841509 82850
STARLINK-4109           
1 53268U 22086AC  24016.63054100  .00000271  00000+0  35097-4 0  9991
2 53268  53.2167 109.4077 0001333  87.8157 272.2987 15.08839988 82853
STARLINK-4057           
1 53269U 22086AD  24016.55418106 -.00000591  00000+0 -19069-4 0  9991
2 53269  53.2170  99.7523 0001519  87.9235 272.1931 15.08840710 82975
